<?xml version='1.0' encoding='utf-8'?>
<q:quakeml xmlns="http://quakeml.org/xmlns/bed/1.2" xmlns:q="http://quakeml.org/xmlns/quakeml/1.2">
  <eventParameters publicID="smi:local/183e0f1f-4870-4e2d-a960-f95b90839b91">
    <event publicID="smi:local/414c8acf-13ab-4949-b3ad-92156d908aa8">
      <preferredOriginID>smi:local/ddbdcfa8-d89d-4771-b601-c1a5dfd8dc42</preferredOriginID>
      <origin publicID="smi:local/ddbdcfa8-d89d-4771-b601-c1a5dfd8dc42">
        <time>
          <value>2015-02-22T00:10:02.300000Z</value>
        </time>
        <latitude>
          <value>38.836697</value>
        </latitude>
        <longitude>
          <value>-122.760284</value>
        </longitude>
      </origin>
      <pick publicID="smi:local/0d16b5af-5770-4e53-96e2-6205e035583f">
        <time>
          <value>2015-02-22T00:10:02.300000Z</value>
        </time>
        <waveformID networkCode="BG" stationCode="ACR"></waveformID>
        <methodID>smi:local/EqTransformer</methodID>
        <phaseHint>P</phaseHint>
      </pick>
      <pick publicID="smi:local/9828b737-66ff-4fcd-8a71-16d6519fc196">
        <time>
          <value>2015-02-22T00:10:02.910000Z</value>
        </time>
        <waveformID networkCode="BG" stationCode="ACR"></waveformID>
        <methodID>smi:local/EqTransformer</methodID>
        <phaseHint>S</phaseHint>
      </pick>
      <pick publicID="smi:local/477c6715-8404-4296-a9ec-b5c48a5f19de">
        <time>
          <value>2015-02-22T00:10:02.410000Z</value>
        </time>
        <waveformID networkCode="BG" stationCode="SQK"></waveformID>
        <methodID>smi:local/EqTransformer</methodID>
        <phaseHint>P</phaseHint>
      </pick>
      <pick publicID="smi:local/5530cd43-55b8-4bb1-a2f4-aa1497bb57c3">
        <time>
          <value>2015-02-22T00:10:03.010000Z</value>
        </time>
        <waveformID networkCode="BG" stationCode="SQK"></waveformID>
        <methodID>smi:local/EqTransformer</methodID>
        <phaseHint>S</phaseHint>
      </pick>
      <pick publicID="smi:local/eb1ccf7b-ba21-40d8-81e4-3c2936de3bfd">
        <time>
          <value>2015-02-22T00:10:02.780000Z</value>
        </time>
        <waveformID networkCode="BG" stationCode="RGP"></waveformID>
        <methodID>smi:local/EqTransformer</methodID>
        <phaseHint>P</phaseHint>
      </pick>
      <pick publicID="smi:local/edb76a06-b152-4862-9266-be059a8301f2">
        <time>
          <value>2015-02-22T00:10:03.900000Z</value>
        </time>
        <waveformID networkCode="BG" stationCode="RGP"></waveformID>
        <methodID>smi:local/EqTransformer</methodID>
        <phaseHint>S</phaseHint>
      </pick>
      <pick publicID="smi:local/54b374f2-d8b0-4706-ab2f-7d13a6ac76f6">
        <time>
          <value>2015-02-22T00:10:03.290000Z</value>
        </time>
        <waveformID networkCode="BG" stationCode="AL6"></waveformID>
        <methodID>smi:local/EqTransformer</methodID>
        <phaseHint>P</phaseHint>
      </pick>
      <pick publicID="smi:local/857ecd4a-7354-4348-b3b4-a45f9f4d84ce">
        <time>
          <value>2015-02-22T00:10:04.830000Z</value>
        </time>
        <waveformID networkCode="BG" stationCode="AL6"></waveformID>
        <methodID>smi:local/EqTransformer</methodID>
        <phaseHint>S</phaseHint>
      </pick>
    </event>
    <event publicID="smi:local/6b45f31e-ab1f-40c2-b8f2-ce3a72ad823d">
      <preferredOriginID>smi:local/2fad4f1d-6672-4e7f-a441-d41dced4b31c</preferredOriginID>
      <origin publicID="smi:local/2fad4f1d-6672-4e7f-a441-d41dced4b31c">
        <time>
          <value>2015-02-22T00:10:31.820000Z</value>
        </time>
        <latitude>
          <value>38.79995</value>
        </latitude>
        <longitude>
          <value>-122.861343</value>
        </longitude>
      </origin>
      <pick publicID="smi:local/c9f68f43-ee87-443d-9fe5-833b2e7cba93">
        <time>
          <value>2015-02-22T00:10:31.560000Z</value>
        </time>
        <waveformID networkCode="BG" stationCode="SQK"></waveformID>
        <methodID>smi:local/EqTransformer</methodID>
        <phaseHint>P</phaseHint>
      </pick>
      <pick publicID="smi:local/94077aab-f77b-4aa9-b461-5a2012be9c66">
        <time>
          <value>2015-02-22T00:10:32.210000Z</value>
        </time>
        <waveformID networkCode="BG" stationCode="SQK"></waveformID>
        <methodID>smi:local/EqTransformer</methodID>
        <phaseHint>S</phaseHint>
      </pick>
      <pick publicID="smi:local/d1df5879-a824-43ab-9177-314b7e5459e4">
        <time>
          <value>2015-02-22T00:10:31.820000Z</value>
        </time>
        <waveformID networkCode="BG" stationCode="RGP"></waveformID>
        <methodID>smi:local/EqTransformer</methodID>
        <phaseHint>P</phaseHint>
      </pick>
      <pick publicID="smi:local/4128a847-77b9-4009-a442-23938f775b56">
        <time>
          <value>2015-02-22T00:10:32.880000Z</value>
        </time>
        <waveformID networkCode="BG" stationCode="RGP"></waveformID>
        <methodID>smi:local/EqTransformer</methodID>
        <phaseHint>S</phaseHint>
      </pick>
      <pick publicID="smi:local/ad90b43b-9aa4-4ea7-afcb-67a1b34f5aec">
        <time>
          <value>2015-02-22T00:10:31.950000Z</value>
        </time>
        <waveformID networkCode="BG" stationCode="AL6"></waveformID>
        <methodID>smi:local/EqTransformer</methodID>
        <phaseHint>P</phaseHint>
      </pick>
      <pick publicID="smi:local/646ee403-b532-4812-91ca-2fd192bfffbc">
        <time>
          <value>2015-02-22T00:10:33.120000Z</value>
        </time>
        <waveformID networkCode="BG" stationCode="AL6"></waveformID>
        <methodID>smi:local/EqTransformer</methodID>
        <phaseHint>S</phaseHint>
      </pick>
    </event>
    <event publicID="smi:local/fc350287-4306-4ded-bf44-5f7c63b6366d">
      <preferredOriginID>smi:local/08501f59-303c-4f95-8a01-d0253a68370f</preferredOriginID>
      <origin publicID="smi:local/08501f59-303c-4f95-8a01-d0253a68370f">
        <time>
          <value>2015-02-22T00:15:50.560000Z</value>
        </time>
        <latitude>
          <value>38.836697</value>
        </latitude>
        <longitude>
          <value>-122.760284</value>
        </longitude>
      </origin>
      <pick publicID="smi:local/a008f6a3-3aba-4477-8ec0-fd25cda24916">
        <time>
          <value>2015-02-22T00:15:48.900000Z</value>
        </time>
        <waveformID networkCode="BG" stationCode="PFR"></waveformID>
        <methodID>smi:local/EqTransformer</methodID>
        <phaseHint>P</phaseHint>
      </pick>
      <pick publicID="smi:local/013e6494-64e7-4afe-9788-0282646de5fa">
        <time>
          <value>2015-02-22T00:15:49.250000Z</value>
        </time>
        <waveformID networkCode="BG" stationCode="PFR"></waveformID>
        <methodID>smi:local/EqTransformer</methodID>
        <phaseHint>S</phaseHint>
      </pick>
      <pick publicID="smi:local/91e9683d-aa24-4823-9ee9-f5bc76c83a41">
        <time>
          <value>2015-02-22T00:15:49.310000Z</value>
        </time>
        <waveformID networkCode="BG" stationCode="EPR"></waveformID>
        <methodID>smi:local/EqTransformer</methodID>
        <phaseHint>P</phaseHint>
      </pick>
      <pick publicID="smi:local/ebf831e9-e6cd-42c7-865e-eca44f3a33f1">
        <time>
          <value>2015-02-22T00:15:50.110000Z</value>
        </time>
        <waveformID networkCode="BG" stationCode="EPR"></waveformID>
        <methodID>smi:local/EqTransformer</methodID>
        <phaseHint>S</phaseHint>
      </pick>
      <pick publicID="smi:local/32a19198-8790-458b-9ccf-7f42043e6249">
        <time>
          <value>2015-02-22T00:15:49.340000Z</value>
        </time>
        <waveformID networkCode="BG" stationCode="TCH"></waveformID>
        <methodID>smi:local/EqTransformer</methodID>
        <phaseHint>P</phaseHint>
      </pick>
      <pick publicID="smi:local/02bf4946-865c-4a95-9f0e-edcd059c6a15">
        <time>
          <value>2015-02-22T00:15:50.020000Z</value>
        </time>
        <waveformID networkCode="BG" stationCode="TCH"></waveformID>
        <methodID>smi:local/EqTransformer</methodID>
        <phaseHint>S</phaseHint>
      </pick>
      <pick publicID="smi:local/f2d3e011-57d8-47a2-b256-81785de25b94">
        <time>
          <value>2015-02-22T00:15:49.440000Z</value>
        </time>
        <waveformID networkCode="BG" stationCode="DEB"></waveformID>
        <methodID>smi:local/EqTransformer</methodID>
        <phaseHint>P</phaseHint>
      </pick>
      <pick publicID="smi:local/f12ac2ec-bc50-406b-b94b-cc9b04251eb2">
        <time>
          <value>2015-02-22T00:15:50.190000Z</value>
        </time>
        <waveformID networkCode="BG" stationCode="DEB"></waveformID>
        <methodID>smi:local/EqTransformer</methodID>
        <phaseHint>S</phaseHint>
      </pick>
      <pick publicID="smi:local/df548398-e6b1-4deb-b46a-5eb3e6a7b66a">
        <time>
          <value>2015-02-22T00:15:49.490000Z</value>
        </time>
        <waveformID networkCode="NC" stationCode="GAXB"></waveformID>
        <methodID>smi:local/EqTransformer</methodID>
        <phaseHint>P</phaseHint>
      </pick>
      <pick publicID="smi:local/5cf93ae3-32d8-4bea-8c32-fd6a1b791116">
        <time>
          <value>2015-02-22T00:15:50.390000Z</value>
        </time>
        <waveformID networkCode="NC" stationCode="GAXB"></waveformID>
        <methodID>smi:local/EqTransformer</methodID>
        <phaseHint>S</phaseHint>
      </pick>
      <pick publicID="smi:local/3bcab0a7-b1f1-49cf-9542-a4a14dbb6eb2">
        <time>
          <value>2015-02-22T00:15:50.260000Z</value>
        </time>
        <waveformID networkCode="BG" stationCode="LCK"></waveformID>
        <methodID>smi:local/EqTransformer</methodID>
        <phaseHint>P</phaseHint>
      </pick>
      <pick publicID="smi:local/c0e55cfb-e875-41b6-bfb7-3b230f54ea64">
        <time>
          <value>2015-02-22T00:15:51.660000Z</value>
        </time>
        <waveformID networkCode="BG" stationCode="LCK"></waveformID>
        <methodID>smi:local/EqTransformer</methodID>
        <phaseHint>S</phaseHint>
      </pick>
      <pick publicID="smi:local/d7874fe8-9e9e-4e47-97f0-19f81fb64350">
        <time>
          <value>2015-02-22T00:15:50.590000Z</value>
        </time>
        <waveformID networkCode="BG" stationCode="ACR"></waveformID>
        <methodID>smi:local/EqTransformer</methodID>
        <phaseHint>P</phaseHint>
      </pick>
      <pick publicID="smi:local/442180e8-7216-48a2-a3a7-b635cd531436">
        <time>
          <value>2015-02-22T00:15:52.050000Z</value>
        </time>
        <waveformID networkCode="BG" stationCode="ACR"></waveformID>
        <methodID>smi:local/EqTransformer</methodID>
        <phaseHint>S</phaseHint>
      </pick>
      <pick publicID="smi:local/6beebe19-27f8-4b25-97ef-575b57bbbfa3">
        <time>
          <value>2015-02-22T00:15:50.730000Z</value>
        </time>
        <waveformID networkCode="BG" stationCode="SQK"></waveformID>
        <methodID>smi:local/EqTransformer</methodID>
        <phaseHint>P</phaseHint>
      </pick>
      <pick publicID="smi:local/c554132b-4e76-4b8e-8983-771580db3737">
        <time>
          <value>2015-02-22T00:15:52.150000Z</value>
        </time>
        <waveformID networkCode="BG" stationCode="SQK"></waveformID>
        <methodID>smi:local/EqTransformer</methodID>
        <phaseHint>S</phaseHint>
      </pick>
      <pick publicID="smi:local/9d6afc17-f019-4f27-8e4e-71c7ca7ddd16">
        <time>
          <value>2015-02-22T00:15:51.030000Z</value>
        </time>
        <waveformID networkCode="BG" stationCode="AL6"></waveformID>
        <methodID>smi:local/EqTransformer</methodID>
        <phaseHint>P</phaseHint>
      </pick>
      <pick publicID="smi:local/96509525-26f9-4775-9b5a-539637143f3d">
        <time>
          <value>2015-02-22T00:15:52.960000Z</value>
        </time>
        <waveformID networkCode="BG" stationCode="AL6"></waveformID>
        <methodID>smi:local/EqTransformer</methodID>
        <phaseHint>S</phaseHint>
      </pick>
      <pick publicID="smi:local/5a23f6b4-7d2a-4440-82d9-adc2f076dfc0">
        <time>
          <value>2015-02-22T00:15:51.850000Z</value>
        </time>
        <waveformID networkCode="BG" stationCode="RGP"></waveformID>
        <methodID>smi:local/EqTransformer</methodID>
        <phaseHint>P</phaseHint>
      </pick>
      <pick publicID="smi:local/b3957327-c555-4be4-871e-75163197d92f">
        <time>
          <value>2015-02-22T00:15:54.150000Z</value>
        </time>
        <waveformID networkCode="BG" stationCode="RGP"></waveformID>
        <methodID>smi:local/EqTransformer</methodID>
        <phaseHint>S</phaseHint>
      </pick>
    </event>
    <event publicID="smi:local/d032db59-6874-4233-8aa8-74fe4c0d4114">
      <preferredOriginID>smi:local/912a4e31-e78b-45e0-9710-be0553622de3</preferredOriginID>
      <origin publicID="smi:local/912a4e31-e78b-45e0-9710-be0553622de3">
        <time>
          <value>2015-02-22T00:17:26.860000Z</value>
        </time>
        <latitude>
          <value>38.79995</value>
        </latitude>
        <longitude>
          <value>-122.861343</value>
        </longitude>
      </origin>
      <pick publicID="smi:local/117c2531-f9f8-4272-b81d-635c3cfeae09">
        <time>
          <value>2015-02-22T00:17:24.490000Z</value>
        </time>
        <waveformID networkCode="BG" stationCode="PFR"></waveformID>
        <methodID>smi:local/EqTransformer</methodID>
        <phaseHint>P</phaseHint>
      </pick>
      <pick publicID="smi:local/3eab1fce-1faf-4104-a553-7fd2374de916">
        <time>
          <value>2015-02-22T00:17:24.850000Z</value>
        </time>
        <waveformID networkCode="BG" stationCode="PFR"></waveformID>
        <methodID>smi:local/EqTransformer</methodID>
        <phaseHint>S</phaseHint>
      </pick>
      <pick publicID="smi:local/063a54de-09fa-46bc-b394-dbb0268c5e02">
        <time>
          <value>2015-02-22T00:17:24.970000Z</value>
        </time>
        <waveformID networkCode="BG" stationCode="EPR"></waveformID>
        <methodID>smi:local/EqTransformer</methodID>
        <phaseHint>P</phaseHint>
      </pick>
      <pick publicID="smi:local/b0332247-d2e8-4ca6-9dd3-3e21e2b0f5e5">
        <time>
          <value>2015-02-22T00:17:25.720000Z</value>
        </time>
        <waveformID networkCode="BG" stationCode="EPR"></waveformID>
        <methodID>smi:local/EqTransformer</methodID>
        <phaseHint>S</phaseHint>
      </pick>
      <pick publicID="smi:local/bd68405a-fab4-4820-8174-3f2d15b573e0">
        <time>
          <value>2015-02-22T00:17:25.100000Z</value>
        </time>
        <waveformID networkCode="BG" stationCode="DEB"></waveformID>
        <methodID>smi:local/EqTransformer</methodID>
        <phaseHint>P</phaseHint>
      </pick>
      <pick publicID="smi:local/c85c911d-d105-4bde-8959-399f53c09d28">
        <time>
          <value>2015-02-22T00:17:25.920000Z</value>
        </time>
        <waveformID networkCode="BG" stationCode="DEB"></waveformID>
        <methodID>smi:local/EqTransformer</methodID>
        <phaseHint>S</phaseHint>
      </pick>
      <pick publicID="smi:local/86a10adf-0af0-4604-81c3-13c425104d19">
        <time>
          <value>2015-02-22T00:17:26.970000Z</value>
        </time>
        <waveformID networkCode="BG" stationCode="AL6"></waveformID>
        <methodID>smi:local/EqTransformer</methodID>
        <phaseHint>P</phaseHint>
      </pick>
      <pick publicID="smi:local/fa661262-92a1-4e5f-bfd7-58db53155a05">
        <time>
          <value>2015-02-22T00:17:28.560000Z</value>
        </time>
        <waveformID networkCode="BG" stationCode="AL6"></waveformID>
        <methodID>smi:local/EqTransformer</methodID>
        <phaseHint>S</phaseHint>
      </pick>
      <pick publicID="smi:local/d9e7e9a9-a4a3-49d4-b4a3-4b4e332d7f7f">
        <time>
          <value>2015-02-22T00:17:27.570000Z</value>
        </time>
        <waveformID networkCode="BG" stationCode="RGP"></waveformID>
        <methodID>smi:local/EqTransformer</methodID>
        <phaseHint>P</phaseHint>
      </pick>
      <pick publicID="smi:local/fa02ad80-2344-48a7-a3af-9f4bc4afaeb2">
        <time>
          <value>2015-02-22T00:17:29.770000Z</value>
        </time>
        <waveformID networkCode="BG" stationCode="RGP"></waveformID>
        <methodID>smi:local/EqTransformer</methodID>
        <phaseHint>S</phaseHint>
      </pick>
    </event>
    <event publicID="smi:local/0680e2e9-4f92-429f-9baf-bcea6fe7b8f1">
      <preferredOriginID>smi:local/45851e45-4984-4813-9a60-0d3fb2ddf312</preferredOriginID>
      <origin publicID="smi:local/45851e45-4984-4813-9a60-0d3fb2ddf312">
        <time>
          <value>2015-02-22T00:17:49.640000Z</value>
        </time>
        <latitude>
          <value>38.79995</value>
        </latitude>
        <longitude>
          <value>-122.861343</value>
        </longitude>
      </origin>
      <pick publicID="smi:local/f8b73b15-1ceb-4d7e-82a8-ef9d83fd4704">
        <time>
          <value>2015-02-22T00:17:48.850000Z</value>
        </time>
        <waveformID networkCode="BG" stationCode="SQK"></waveformID>
        <methodID>smi:local/EqTransformer</methodID>
        <phaseHint>P</phaseHint>
      </pick>
      <pick publicID="smi:local/276c8be4-94a1-4d2a-9e0f-3cb6a41d572b">
        <time>
          <value>2015-02-22T00:17:49.520000Z</value>
        </time>
        <waveformID networkCode="BG" stationCode="SQK"></waveformID>
        <methodID>smi:local/EqTransformer</methodID>
        <phaseHint>S</phaseHint>
      </pick>
      <pick publicID="smi:local/65e90c99-ec3f-48d4-893f-e1d4009dddd5">
        <time>
          <value>2015-02-22T00:17:49.380000Z</value>
        </time>
        <waveformID networkCode="BG" stationCode="RGP"></waveformID>
        <methodID>smi:local/EqTransformer</methodID>
        <phaseHint>P</phaseHint>
      </pick>
      <pick publicID="smi:local/4162a701-5e60-4674-b040-af04598efd18">
        <time>
          <value>2015-02-22T00:17:50.340000Z</value>
        </time>
        <waveformID networkCode="BG" stationCode="RGP"></waveformID>
        <methodID>smi:local/EqTransformer</methodID>
        <phaseHint>S</phaseHint>
      </pick>
      <pick publicID="smi:local/4ae045ad-ac0d-45f0-834e-88e76e922d3e">
        <time>
          <value>2015-02-22T00:17:49.690000Z</value>
        </time>
        <waveformID networkCode="BG" stationCode="AL6"></waveformID>
        <methodID>smi:local/EqTransformer</methodID>
        <phaseHint>P</phaseHint>
      </pick>
      <pick publicID="smi:local/c914606b-ac06-4418-9f07-c5960a9e92bb">
        <time>
          <value>2015-02-22T00:17:51.160000Z</value>
        </time>
        <waveformID networkCode="BG" stationCode="AL6"></waveformID>
        <methodID>smi:local/EqTransformer</methodID>
        <phaseHint>S</phaseHint>
      </pick>
    </event>
    <event publicID="smi:local/8e0ca251-212a-4d9c-b0e1-495e64325e25">
      <preferredOriginID>smi:local/89ba6293-efa2-49fe-90ee-30fbf571570a</preferredOriginID>
      <origin publicID="smi:local/89ba6293-efa2-49fe-90ee-30fbf571570a">
        <time>
          <value>2015-02-22T00:21:39.480000Z</value>
        </time>
        <latitude>
          <value>38.836697</value>
        </latitude>
        <longitude>
          <value>-122.760284</value>
        </longitude>
      </origin>
      <pick publicID="smi:local/7196a27b-248d-4031-b91c-ff602fe203f1">
        <time>
          <value>2015-02-22T00:21:39.490000Z</value>
        </time>
        <waveformID networkCode="BG" stationCode="ACR"></waveformID>
        <methodID>smi:local/EqTransformer</methodID>
        <phaseHint>P</phaseHint>
      </pick>
      <pick publicID="smi:local/3a1b743c-c779-4719-b403-a2024eb77cc7">
        <time>
          <value>2015-02-22T00:21:40.010000Z</value>
        </time>
        <waveformID networkCode="BG" stationCode="ACR"></waveformID>
